[{"OBJECT_NAME":"STARLINK-5528","OBJECT_ID":"2023-083Q","EPOCH":"2026-03-09T10:27:38.287584","MEAN_MOTION":15.02541661,"ECCENTRICITY":9.055e-5,"INCLINATION":43.0025,"RA_OF_ASC_NODE":83.0319,"ARG_OF_PERICENTER":297.633,"MEAN_ANOMALY":62.442,"EPHEMERIS_TYPE":0,"CLASSIFICATION_TYPE":"U","NORAD_CAT_ID":56890,"ELEMENT_SET_NO":999,"REV_AT_EPOCH":15163,"BSTAR":-8.8718872e-5,"MEAN_MOTION_DOT":-1.402e-5,"MEAN_MOTION_DDOT":0},{"OBJECT_NAME":"UNKNOWN","OBJECT_ID":"","EPOCH":"2026-03-09T06:40:17.770944","MEAN_MOTION":13.93999236,"ECCENTRICITY":0.0496409,"INCLINATION":63.0116,"RA_OF_ASC_NODE":359.5695,"ARG_OF_PERICENTER":301.9459,"MEAN_ANOMALY":53.4224,"EPHEMERIS_TYPE":0,"CLASSIFICATION_TYPE":"U","NORAD_CAT_ID":82205,"ELEMENT_SET_NO":999,"REV_AT_EPOCH":62006,"BSTAR":0.0010476,"MEAN_MOTION_DOT":3.786e-5,"MEAN_MOTION_DDOT":0}]
